NORAD_CAT_ID,OBJECT_NAME,OBJECT_TYPE,EPOCH,MEAN_MOTION,ECCENTRICITY,INCLINATION,RA_OF_ASC_NODE,ARG_OF_PERICENTER,MEAN_ANOMALY,BSTAR,MEAN_MOTION_DOT,MEAN_MOTION_DDOT,TLE_LINE0,TLE_LINE1,TLE_LINE2,SEMIMAJOR_AXIS,PERIOD,APOGEE,PERIGEE,DECAYED
54006.0,STARLINK-5096,PAYLOAD,2022-12-02 14:00:01,15.28928924,0.0001305,53.2167,170.3265,83.8664,209.6988,-0.036054,-0.00950469,0.0,0 STARLINK-5096,1 54006U 22125AU  22336.58334491 -.00950469  00000-0 -36054-1 0  9994,2 54006  53.2167 170.3265 0001305  83.8664 209.6988 15.28928924  1305,6857.15,94.184,479.91,478.12,0.0
54006.0,STARLINK-5096,PAYLOAD,2022-12-02 20:00:01,15.28228293,0.0001327,53.2173,169.1717,80.6561,149.6167,-0.032895,-0.00845547,0.0,0 STARLINK-5096,1 54006U 22125AU  22336.83334491 -.00845547  00000-0 -32895-1 0  9991,2 54006  53.2173 169.1717 0001327  80.6561 149.6167 15.28228293  1309,6859.246,94.227,482.021,480.2,0.0
54006.0,STARLINK-5096,PAYLOAD,2022-12-03 06:00:00,15.27349683,0.0001032,53.2171,167.2444,64.4621,298.9032,-0.040508,-0.01012023,0.0,0 STARLINK-5096,1 54006U 22125AU  22337.25001157 -.01012023  00000-0 -40508-1 0  9994,2 54006  53.2171 167.2444 0001032  64.4621 298.9032 15.27349683  9496,6861.876,94.281,484.449,483.033,0.0
54006.0,STARLINK-5096,PAYLOAD,2022-12-03 14:00:01,15.2652893,0.0001346,53.2171,165.7052,55.8036,341.0130000000001,-0.04112,-0.01002729,0.0,0 STARLINK-5096,1 54006U 22125AU  22337.58334491 -.01002729  00000-0 -41120-1 0  9993,2 54006  53.2171 165.7052 0001346  55.8036 341.0130 15.26528930  1300,6864.335,94.332,487.124,485.276,0.0
54006.0,STARLINK-5096,PAYLOAD,2022-12-03 22:00:00,15.25757692,0.0001203,53.2173,164.1703,70.773,358.4904,-0.044729,-0.01060311,0.0,0 STARLINK-5096,1 54006U 22125AU  22337.91667824 -.01060311  00000-0 -44729-1 0  9998,2 54006  53.2173 164.1703 0001203  70.7730 358.4904 15.25757692  9595,6866.648,94.379,489.339,487.687,0.0
54006.0,STARLINK-5096,PAYLOAD,2022-12-04 06:00:00,15.2499122,0.000126,53.2172,162.6337,72.79899999999998,27.9343,-0.048846,-0.01140077,0.0,0 STARLINK-5096,1 54006U 22125AU  22338.25001157 -.01140077  00000-0 -48846-1 0  9999,2 54006  53.2172 162.6337 0001260  72.7990  27.9343 15.24991220  9651,6868.949000000001,94.427,491.679,489.948,0.0
54006.0,STARLINK-5096,PAYLOAD,2022-12-04 14:00:01,15.24220011,0.0001324,53.2168,161.1003,76.1805,55.0457,-0.052784,-0.01198711,0.0,0 STARLINK-5096,1 54006U 22125AU  22338.58334491 -.01198711  00000-0 -52784-1 0  9999,2 54006  53.2168 161.1003 0001324  76.1805  55.0457 15.24220011  1309,6871.266,94.475,494.04,492.221,0.0
54006.0,STARLINK-5096,PAYLOAD,2022-12-04 22:00:00,15.2337883,0.000132,53.2171,159.5711,90.8075,69.9668,-0.052263,-0.01160506,0.0,0 STARLINK-5096,1 54006U 22125AU  22338.91667824 -.01160506  00000-0 -52263-1 0  9998,2 54006  53.2171 159.5711 0001320  90.8075  69.9668 15.23378830  9755,6873.795,94.527,496.567,494.752,0.0
54006.0,STARLINK-5096,PAYLOAD,2022-12-05 14:00:01,15.217151500000002,0.0001391,53.2168,156.5126,90.4232,126.5716,-0.052359,-0.01110506,0.0,0 STARLINK-5096,1 54006U 22125AU  22339.58335648 -.01110506  00000-0 -52359-1 0  9999,2 54006  53.2168 156.5126 0001391  90.4232 126.5716 15.21715150  1302,6878.804,94.63,501.626,499.712,0.0
54006.0,STARLINK-5096,PAYLOAD,2022-12-05 22:00:01,15.20926222,0.0001368,53.2176,154.9879,84.1778,159.4065,-0.0553539999999999,-0.01144226,0.0,0 STARLINK-5096,1 54006U 22125AU  22339.91668981 -.01144226  00000-0 -55354-1 0  9999,2 54006  53.2176 154.9879 0001368  84.1778 159.4065 15.20926222  9906,6881.183000000001,94.679,503.989,502.106,0.0
54006.0,STARLINK-5096,PAYLOAD,2022-12-06 14:00:01,15.19288708,0.0001272,53.2167,151.9419,84.8116,209.0489,-0.057328,-0.0113058,0.0,0 STARLINK-5096,1 54006U 22125AU  22340.58335648 -.01130580  00000-0 -57328-1 0  9996,2 54006  53.2167 151.9419 0001272  84.8116 209.0489 15.19288708 10003,6886.126,94.781,508.867,507.115,0.0
54006.0,STARLINK-5096,PAYLOAD,2022-12-06 22:00:00,15.18457743,0.0001289,53.2167,150.4241,86.0233,231.4507,-0.057432,-0.01107418,0.0,0 STARLINK-5096,1 54006U 22125AU  22340.91667824 -.01107418  00000-0 -57432-1 0  9997,2 54006  53.2167 150.4241 0001289  86.0233 231.4507 15.18457743  1301,6888.638000000001,94.833,511.391,509.615,0.0
54006.0,STARLINK-5096,PAYLOAD,2022-12-07 06:00:00,15.17512732,0.0001089,53.2177,148.9037,74.4539,265.7757,-0.048482,-0.00911857,0.0,0 STARLINK-5096,1 54006U 22125AU  22341.25001157 -.00911857  00000-0 -48482-1 0  9990,2 54006  53.2177 148.9037 0001089  74.4539 265.7757 15.17512732 10109,6891.498000000001,94.892,514.113,512.612,0.0
54006.0,STARLINK-5096,PAYLOAD,2022-12-07 14:00:01,15.15942915,6.69e-05,53.2183,147.3856,81.0466,281.3249,0.0067771999999999,0.00133659,0.0,0 STARLINK-5096,1 54006U 22125AU  22341.58334491  .00133659  00000-0  67772-2 0  9994,2 54006  53.2183 147.3856 0000669  81.0466 281.3249 15.15942915 10157,6896.254,94.99,518.581,517.658,0.0
54006.0,STARLINK-5096,PAYLOAD,2022-12-07 22:00:00,15.14609265,6.52e-05,53.2175,145.8704,119.7363,263.6372,0.049884,0.01002548,0.0,0 STARLINK-5096,1 54006U 22125AU  22341.91667824  .01002548  00000-0  49884-1 0  9996,2 54006  53.2175 145.8704 0000652 119.7363 263.6372 15.14609265 10203,6900.302,95.074,522.617,521.717,0.0
54006.0,STARLINK-5096,PAYLOAD,2022-12-08 06:00:00,15.15231036,0.0001185,53.2174,144.3611,104.1127,298.2449,-0.065402,-0.01146044,0.0,0 STARLINK-5096,1 54006U 22125AU  22342.25001157 -.01146044  00000-0 -65402-1 0  9991,2 54006  53.2174 144.3611 0001185 104.1127 298.2449 15.15231036 10253,6898.4140000000025,95.035,521.097,519.462,0.0
54006.0,STARLINK-5096,PAYLOAD,2022-12-08 14:00:01,15.15850083,0.0001516,53.2145,142.8506,113.9721,310.8214,0.07011,0.01487666,0.0,0 STARLINK-5096,1 54006U 22125AU  22342.58334491  .01487666  00000-0  70110-1 0  9995,2 54006  53.2145 142.8506 0001516 113.9721 310.8214 15.15850083  1309,6896.536,94.996,519.447,517.355,0.0
54006.0,STARLINK-5096,PAYLOAD,2022-12-08 20:02:48,15.17289292,0.0001131,53.2156,141.7083,112.1195,247.9921,-0.0097888,-0.00192548,0.0,0 STARLINK-5096,1 54006U 22125AU  22342.83528628 -.00192548  00000-0 -97888-2 0  9995,2 54006  53.2156 141.7083 0001131 112.1195 247.9921 15.17289292 10347,6892.174,94.906,514.819,513.26,0.0
54006.0,STARLINK-5096,PAYLOAD,2022-12-09 06:00:02,15.15746993,0.0001121,53.217,139.8232,109.2492,356.8262,-0.074914,-0.01315772,0.0,0 STARLINK-5096,1 54006U 22125AU  22343.25002315 -.01315772  00000-0 -74914-1 0  9993,2 54006  53.2170 139.8232 0001121 109.2492 356.8262 15.15746993 10413,6896.849,95.003,519.487,517.941,0.0
54006.0,STARLINK-5096,PAYLOAD,2022-12-09 14:00:01,15.14697991,0.0001291999999999,53.2168,138.3114,101.9872,23.3952,-0.0565679999999999,-0.00976161,0.0,0 STARLINK-5096,1 54006U 22125AU  22343.58334491 -.00976161  00000-0 -56568-1 0  9991,2 54006  53.2168 138.3114 0001292 101.9872  23.3952 15.14697991  1305,6900.033,95.068,522.789,521.006,0.0
54006.0,STARLINK-5096,PAYLOAD,2022-12-09 22:00:00,15.13529688,0.0001679,53.2174,136.804,117.9974,25.8408,-0.027378,-0.00465687,0.0,0 STARLINK-5096,1 54006U 22125AU  22343.91667824 -.00465687  00000-0 -27378-1 0  9990,2 54006  53.2174 136.8040 0001679 117.9974  25.8408 15.13529688 10514,6903.583000000001,95.142,526.607,524.289,0.0
54006.0,STARLINK-5096,PAYLOAD,2022-12-10 00:00:00,15.13749555,0.0001704,53.217,136.4264,130.7545,107.2844,-0.063816,-0.01077629,0.0,0 STARLINK-5096,1 54006U 22125AU  22344.00001157 -.01077629  00000-0 -63816-1 0  9995,2 54006  53.2170 136.4264 0001704 130.7545 107.2844 15.13749555 10527,6902.9140000000025,95.128,525.956,523.6030000000002,0.0
54006.0,STARLINK-5096,PAYLOAD,2022-12-10 14:00:01,15.12372728,0.0001501999999999,53.2174,133.7901,108.583,68.6411,-0.070891,-0.01145796,0.0,0 STARLINK-5096,1 54006U 22125AU  22344.58334491 -.01145796  00000-0 -70891-1 0  9990,2 54006  53.2174 133.7901 0001502 108.5830  68.6411 15.12372728 10618,6907.103,95.215,530.006,527.931,0.0
54006.0,STARLINK-5096,PAYLOAD,2022-12-11 00:00:00,15.11358039,0.0001453999999999,53.2172,131.9113,119.6604,166.5906,-0.0732169999999999,-0.0114989,0.0,0 STARLINK-5096,1 54006U 22125AU  22345.00001157 -.01149890  00000-0 -73217-1 0  9992,2 54006  53.2172 131.9113 0001454 119.6604 166.5906 15.11358039  1300,6910.194,95.279,533.064,531.055,0.0
54006.0,STARLINK-5096,PAYLOAD,2022-12-11 14:00:01,15.09930537,0.00017,53.2174,129.2851,124.5823,95.7425,-0.075754,-0.01143966,0.0,0 STARLINK-5096,1 54006U 22125AU  22345.58334491 -.01143966  00000-0 -75754-1 0  9991,2 54006  53.2174 129.2851 0001700 124.5823  95.7425 15.09930537 10768,6914.549,95.369,537.59,535.239,0.0
54006.0,STARLINK-5096,PAYLOAD,2022-12-11 22:00:01,15.09117837,0.0001426,53.2171,127.7877,100.3692,132.4287,-0.077566,-0.0114515,0.0,0 STARLINK-5096,1 54006U 22125AU  22345.91668981 -.01145150  00000-0 -77566-1 0  9992,2 54006  53.2171 127.7877 0001426 100.3692 132.4287 15.09117837  1302,6917.031,95.42,539.883,537.91,0.0
54006.0,STARLINK-5096,PAYLOAD,2022-12-12 14:00:01,15.07424474,0.0001579,53.2174,124.797,116.9212,137.7148,-0.021622,-0.00317033,0.0,0 STARLINK-5096,1 54006U 22125AU  22346.58334491 -.00317033  00000-0 -21622-1 0  9994,2 54006  53.2174 124.7970 0001579 116.9212 137.7148 15.07424474 10913,6922.21,95.527,545.168,542.982,0.0
54006.0,STARLINK-5096,PAYLOAD,2022-12-12 22:00:00,15.07203635,0.0001533,53.2171,123.3046,124.0406,140.3456,-0.00013942,-2.405e-05,0.0,0 STARLINK-5096,1 54006U 22125AU  22346.91667824 -.00002405  00000-0 -13942-3 0  9992,2 54006  53.2171 123.3046 0001533 124.0406 140.3456 15.07203635 10965,6922.887,95.541,545.813,543.69,0.0
54006.0,STARLINK-5096,PAYLOAD,2022-12-13 06:00:00,15.07074429,0.0001173,53.214,121.8076,119.8404,154.664,0.0062647,0.0009604,0.0,0 STARLINK-5096,1 54006U 22125AU  22347.25001157  .00096040  00000-0  62647-2 0  9992,2 54006  53.2140 121.8076 0001173 119.8404 154.6640 15.07074429 11014,6923.281999999997,95.549,545.9590000000002,544.335,0.0
